{
    "links": {
        "self": "http://www.neowsapp.com/rest/v1/neo/3601335?api_key=iIulBulltgU6a56xZRHN4H3l9WmuAYTsLGpBGhQ2"
    },
    "id": "3601335",
    "neo_reference_id": "3601335",
    "name": "(2012 EN10)",
    "designation": "2012 EN10",
    "nasa_jpl_url": "http://ssd.jpl.nasa.gov/sbdb.cgi?sstr=3601335",
    "absolute_magnitude_h": 26.1,
    "estimated_diameter": {
        "kilometers": {
            "estimated_diameter_min": 0.0160160338,
            "estimated_diameter_max": 0.0358129403
        },
        "meters": {
            "estimated_diameter_min": 16.0160337979,
            "estimated_diameter_max": 35.8129403019
        },
        "miles": {
            "estimated_diameter_min": 0.0099518989,
            "estimated_diameter_max": 0.0222531225
        },
        "feet": {
            "estimated_diameter_min": 52.5460443254,
            "estimated_diameter_max": 117.4965270602
        }
    },
    "is_potentially_hazardous_asteroid": false,
    "close_approach_data": [
        {
            "close_approach_date": "2000-11-09",
            "close_approach_date_full": "2000-Nov-09 14:09",
            "epoch_date_close_approach": 973778940000,
            "relative_velocity": {
                "kilometers_per_second": "17.0437455058",
                "kilometers_per_hour": "61357.483821033",
                "miles_per_hour": "38125.1543220191"
            },
            "miss_distance": {
                "astronomical": "0.3193805165",
                "lunar": "124.2390209185",
                "kilometers": "47778644.987899855",
                "miles": "29688273.331953799"
            },
            "orbiting_body": "Earth"
        },
        {
            "close_approach_date": "2011-10-29",
            "close_approach_date_full": "2011-Oct-29 15:31",
            "epoch_date_close_approach": 1319902260000,
            "relative_velocity": {
                "kilometers_per_second": "6.637426496",
                "kilometers_per_hour": "23894.7353855905",
                "miles_per_hour": "14847.2593288965"
            },
            "miss_distance": {
                "astronomical": "0.4312818881",
                "lunar": "167.7686544709",
                "kilometers": "64518851.829338347",
                "miles": "40090155.5215373086"
            },
            "orbiting_body": "Earth"
        },
        {
            "close_approach_date": "2012-03-12",
            "close_approach_date_full": "2012-Mar-12 22:16",
            "epoch_date_close_approach": 1331590560000,
            "relative_velocity": {
                "kilometers_per_second": "10.7823750856",
                "kilometers_per_hour": "38816.5503083",
                "miles_per_hour": "24119.0948290657"
            },
            "miss_distance": {
                "astronomical": "0.0208372791",
                "lunar": "8.1057015699",
                "kilometers": "3117212.569955517",
                "miles": "1936946.0735874546"
            },
            "orbiting_body": "Earth"
        }
    ],
    "orbital_data": {
        "orbit_id": "6",
        "orbit_determination_date": "2017-04-06 08:50:32",
        "first_observation_date": "2012-03-15",
        "last_observation_date": "2012-03-26",
        "data_arc_in_days": 11,
        "observations_used": 47,
        "orbit_uncertainty": "7",
        "minimum_orbit_intersection": ".0184176",
        "jupiter_tisserand_invariant": "4.413",
        "epoch_osculation": "2459000.5",
        "eccentricity": ".4066277375641406",
        "semi_major_axis": "1.509159671449277",
        "inclination": "11.11730881525538",
        "ascending_node_longitude": "175.9758273225411",
        "orbital_period": "677.1754635910146",
        "perihelion_distance": ".8954934886248156",
        "perihelion_argument": "304.1630863089546",
        "aphelion_distance": "2.122825854273738",
        "perihelion_time": "2458667.023822516374",
        "mean_anomaly": "177.2825956473394",
        "mean_motion": ".5316199705331096",
        "equinox": "J2000",
        "orbit_class": {
            "orbit_class_type": "APO",
            "orbit_class_description": "Near-Earth asteroid orbits which cross the Earth’s orbit similar to that of 1862 Apollo",
            "orbit_class_range": "a (semi-major axis) > 1.0 AU; q (perihelion) < 1.017 AU"
        }
    },
    "is_sentry_object": false
}